{
  "type": "FeatureCollection",
  "features": [
    {
      "type": "Feature",
      "properties": {
        "norad_id": 41026,
        "name": "YAOGAN-28",
        "group": "resource",
        "lat": 0.20741143924456226,
        "lon": 137.5487985091644,
        "alt_km": 494.1081222364228,
        "timestamp": "2025-12-26T03:50:11.745011+00:00",
        "meta_object_name": "YAOGAN-28",
        "meta_object_id": "2015-064A",
        "meta_epoch": "2025-12-25T21:32:05.055936",
        "meta_mean_motion": 15.24559786,
        "meta_eccentricity": 0.0012657,
        "meta_inclination": 97.2816,
        "meta_ra_of_asc_node": 137.3201,
        "meta_arg_of_pericenter": 84.3332,
        "meta_mean_anomaly": 275.9349,
        "meta_ephemeris_type": 0,
        "meta_classification_type": "U",
        "meta_norad_cat_id": 41026,
        "meta_element_set_no": 999,
        "meta_rev_at_epoch": 56425,
        "meta_bstar": 0.00032749,
        "meta_mean_motion_dot": 8.015e-05,
        "meta_mean_motion_ddot": 0,
        "tle_line1": "1 41026U 15064A   25359.89728074  .00008015  00000+0  32749-3 0  9999",
        "tle_line2": "2 41026  97.2816 137.3201 0012657  84.3332 275.9349 15.24559786564252"
      },
      "geometry": {
        "type": "Point",
        "coordinates": [
          137.5487985091644,
          0.20741143924456226
        ]
      }
    },
    {
      "type": "Feature",
      "properties": {
        "norad_id": 41038,
        "name": "YAOGAN-29",
        "group": "resource",
        "lat": -70.7443746539848,
        "lon": 179.5670916362089,
        "alt_km": 627.5111287788113,
        "timestamp": "2025-12-26T03:50:11.745021+00:00",
        "meta_object_name": "YAOGAN-29",
        "meta_object_id": "2015-069A",
        "meta_epoch": "2025-12-25T20:13:26.592096",
        "meta_mean_motion": 14.82897674,
        "meta_eccentricity": 9.34e-05,
        "meta_inclination": 98.0207,
        "meta_ra_of_asc_node": 23.0553,
        "meta_arg_of_pericenter": 160.5912,
        "meta_mean_anomaly": 199.5337,
        "meta_ephemeris_type": 0,
        "meta_classification_type": "U",
        "meta_norad_cat_id": 41038,
        "meta_element_set_no": 999,
        "meta_rev_at_epoch": 54493,
        "meta_bstar": 0.00010562,
        "meta_mean_motion_dot": 8.02e-06,
        "meta_mean_motion_ddot": 0,
        "tle_line1": "1 41038U 15069A   25359.84266889  .00000802  00000+0  10562-3 0  9998",
        "tle_line2": "2 41038  98.0207  23.0553 0000934 160.5912 199.5337 14.82897674544930"
      },
      "geometry": {
        "type": "Point",
        "coordinates": [
          179.5670916362089,
          -70.7443746539848
        ]
      }
    },
    {
      "type": "Feature",
      "properties": {
        "norad_id": 41167,
        "name": "KENT RIDGE 1",
        "group": "resource",
        "lat": 14.818281618511213,
        "lon": -166.77394679079896,
        "alt_km": 498.8139045938997,
        "timestamp": "2025-12-26T03:50:11.745031+00:00",
        "meta_object_name": "KENT RIDGE 1",
        "meta_object_id": "2015-077B",
        "meta_epoch": "2025-12-25T16:28:00.882048",
        "meta_mean_motion": 15.21731933,
        "meta_eccentricity": 0.0008537,
        "meta_inclination": 14.9792,
        "meta_ra_of_asc_node": 115.0675,
        "meta_arg_of_pericenter": 313.4673,
        "meta_mean_anomaly": 46.4939,
        "meta_ephemeris_type": 0,
        "meta_classification_type": "U",
        "meta_norad_cat_id": 41167,
        "meta_element_set_no": 999,
        "meta_rev_at_epoch": 55461,
        "meta_bstar": 0.00017413,
        "meta_mean_motion_dot": 4.822e-05,
        "meta_mean_motion_ddot": 0,
        "tle_line1": "1 41167U 15077B   25359.68612132  .00004822  00000+0  17413-3 0  9996",
        "tle_line2": "2 41167  14.9792 115.0675 0008537 313.4673  46.4939 15.21731933554619"
      },
      "geometry": {
        "type": "Point",
        "coordinates": [
          -166.77394679079896,
          14.818281618511213
        ]
      }
    },
    {
      "type": "Feature",
      "properties": {
        "norad_id": 41194,
        "name": "GAOFEN-4",
        "group": "resource",
        "lat": -0.004261211716340419,
        "lon": -101.81207216049425,
        "alt_km": 35785.20481772483,
        "timestamp": "2025-12-26T03:50:11.745045+00:00",
        "meta_object_name": "GAOFEN-4",
        "meta_object_id": "2015-083A",
        "meta_epoch": "2025-12-25T18:48:31.585824",
        "meta_mean_motion": 1.00269663,
        "meta_eccentricity": 0.0002819,
        "meta_inclination": 0.2017,
        "meta_ra_of_asc_node": 81.9193,
        "meta_arg_of_pericenter": 93.7327,
        "meta_mean_anomaly": 306.7256,
        "meta_ephemeris_type": 0,
        "meta_classification_type": "U",
        "meta_norad_cat_id": 41194,
        "meta_element_set_no": 999,
        "meta_rev_at_epoch": 3679,
        "meta_bstar": 0,
        "meta_mean_motion_dot": -3.13e-06,
        "meta_mean_motion_ddot": 0,
        "tle_line1": "1 41194U 15083A   25359.78369891 -.00000313  00000+0  00000+0 0  9997",
        "tle_line2": "2 41194   0.2017  81.9193 0002819  93.7327 306.7256  1.00269663 36790"
      },
      "geometry": {
        "type": "Point",
        "coordinates": [
          -101.81207216049425,
          -0.004261211716340419
        ]
      }
    },
    {
      "type": "Feature",
      "properties": {
        "norad_id": 41240,
        "name": "JASON-3",
        "group": "resource",
        "lat": -47.445948933134545,
        "lon": -21.422801498450674,
        "alt_km": 1312.3856924872707,
        "timestamp": "2025-12-26T03:50:11.745056+00:00",
        "meta_object_name": "JASON-3",
        "meta_object_id": "2016-002A",
        "meta_epoch": "2025-12-25T19:10:12.819072",
        "meta_mean_motion": 12.87627089,
        "meta_eccentricity": 0.0007313,
        "meta_inclination": 66.0406,
        "meta_ra_of_asc_node": 130.369,
        "meta_arg_of_pericenter": 271.5964,
        "meta_mean_anomaly": 88.4217,
        "meta_ephemeris_type": 0,
        "meta_classification_type": "U",
        "meta_norad_cat_id": 41240,
        "meta_element_set_no": 999,
        "meta_rev_at_epoch": 46492,
        "meta_bstar": 0.0001415,
        "meta_mean_motion_dot": -2.6e-07,
        "meta_mean_motion_ddot": 0,
        "tle_line1": "1 41240U 16002A   25359.79875948 -.00000026  00000+0  14150-3 0  9993",
        "tle_line2": "2 41240  66.0406 130.3690 0007313 271.5964  88.4217 12.87627089464920"
      },
      "geometry": {
        "type": "Point",
        "coordinates": [
          -21.422801498450674,
          -47.445948933134545
        ]
      }
    },
    {
      "type": "Feature",
      "properties": {
        "norad_id": 41335,
        "name": "SENTINEL-3A",
        "group": "resource",
        "lat": 55.994037541960175,
        "lon": -102.00648273667919,
        "alt_km": 796.7179354587206,
        "timestamp": "2025-12-26T03:50:11.745066+00:00",
        "meta_object_name": "SENTINEL-3A",
        "meta_object_id": "2016-011A",
        "meta_epoch": "2025-12-25T18:50:48.274944",
        "meta_mean_motion": 14.26735646,
        "meta_eccentricity": 8.82e-05,
        "meta_inclination": 98.6297,
        "meta_ra_of_asc_node": 64.6157,
        "meta_arg_of_pericenter": 97.2042,
        "meta_mean_anomaly": 262.9239,
        "meta_ephemeris_type": 0,
        "meta_classification_type": "U",
        "meta_norad_cat_id": 41335,
        "meta_element_set_no": 999,
        "meta_rev_at_epoch": 51333,
        "meta_bstar": 7.5935e-05,
        "meta_mean_motion_dot": 1.4e-06,
        "meta_mean_motion_ddot": 0,
        "tle_line1": "1 41335U 16011A   25359.78528096  .00000140  00000+0  75935-4 0  9991",
        "tle_line2": "2 41335  98.6297  64.6157 0000882  97.2042 262.9239 14.26735646513332"
      },
      "geometry": {
        "type": "Point",
        "coordinates": [
          -102.00648273667919,
          55.994037541960175
        ]
      }
    },
    {
      "type": "Feature",
      "properties": {
        "norad_id": 41556,
        "name": "ZIYUAN 3-02 (ZY 3-02)",
        "group": "resource",
        "lat": 65.29809064437595,
        "lon": -89.48083509997397,
        "alt_km": 494.71745983347864,
        "timestamp": "2025-12-26T03:50:11.745077+00:00",
        "meta_object_name": "ZIYUAN 3-02 (ZY 3-02)",
        "meta_object_id": "2016-033A",
        "meta_epoch": "2025-12-25T21:01:25.054752",
        "meta_mean_motion": 15.2124074,
        "meta_eccentricity": 0.0011483,
        "meta_inclination": 97.4023,
        "meta_ra_of_asc_node": 73.8226,
        "meta_arg_of_pericenter": 197.1964,
        "meta_mean_anomaly": 162.8884,
        "meta_ephemeris_type": 0,
        "meta_classification_type": "U",
        "meta_norad_cat_id": 41556,
        "meta_element_set_no": 999,
        "meta_rev_at_epoch": 53163,
        "meta_bstar": 0.00034981,
        "meta_mean_motion_dot": 7.758e-05,
        "meta_mean_motion_ddot": 0,
        "tle_line1": "1 41556U 16033A   25359.87598443  .00007758  00000+0  34981-3 0  9990",
        "tle_line2": "2 41556  97.4023  73.8226 0011483 197.1964 162.8884 15.21240740531631"
      },
      "geometry": {
        "type": "Point",
        "coordinates": [
          -89.48083509997397,
          65.29809064437595
        ]
      }
    }
  ]
}